NORAD_CAT_ID,OBJECT_NAME,OBJECT_TYPE,EPOCH,MEAN_MOTION,ECCENTRICITY,INCLINATION,RA_OF_ASC_NODE,ARG_OF_PERICENTER,MEAN_ANOMALY,BSTAR,MEAN_MOTION_DOT,MEAN_MOTION_DDOT,TLE_LINE0,TLE_LINE1,TLE_LINE2,SEMIMAJOR_AXIS,PERIOD,APOGEE,PERIGEE,DECAYED
53726.0,STARLINK-4697,PAYLOAD,2024-06-29 22:09:43,15.08832995,0.0001164,53.2142,147.2585,84.0482,276.0643,3.1466e-05,2.13e-06,0.0,0 STARLINK-4697,1 53726U 22107AC  24181.92342464  .00000213  00000-0  31466-4 0  9995,2 53726  53.2142 147.2585 0001164  84.0482 276.0643 15.08832995101158,6917.902,95.438,540.572,538.962,0.0
53726.0,STARLINK-4697,PAYLOAD,2024-06-30 04:31:16,15.08830594,0.0001197,53.2151,146.0636,86.2055,273.9074,-3.054e-05,-7.74e-06,0.0,0 STARLINK-4697,1 53726U 22107AC  24182.18838871 -.00000774  00000-0 -30540-4 0  9992,2 53726  53.2151 146.0636 0001197  86.2055 273.9074 15.08830594100738,6917.909,95.438,540.602,538.946,0.0
53726.0,STARLINK-4697,PAYLOAD,2024-06-30 07:42:03,15.08814878,0.000129,53.2155,145.4706,93.1838,266.9302,0.00013865,1.918e-05,0.0,0 STARLINK-4697,1 53726U 22107AC  24182.32087360  .00001918  00000-0  13865-3 0  9996,2 53726  53.2155 145.4706 0001290  93.1838 266.9302 15.08814878100758,6917.957,95.439,540.715,538.93,0.0
53726.0,STARLINK-4697,PAYLOAD,2024-06-30 14:03:35,15.08831462,0.0001203,53.2156,144.2811,88.9626,271.1504,-8.476e-05,-1.636e-05,0.0,0 STARLINK-4697,1 53726U 22107AC  24182.58583199 -.00001636  00000-0 -84760-4 0  9997,2 53726  53.2156 144.2811 0001203  88.9626 271.1504 15.08831462100798,6917.906,95.438,540.604,538.939,0.0
53726.0,STARLINK-4697,PAYLOAD,2024-07-01 04:22:03,15.08838916,0.0001244,53.216,141.6065,84.6175,275.4959,6.5075e-05,7.48e-06,0.0,0 STARLINK-4697,1 53726U 22107AC  24183.18198450  .00000748  00000-0  65075-4 0  9995,2 53726  53.2160 141.6065 0001244  84.6175 275.4959 15.08838916100884,6917.884,95.438,540.609,538.888,0.0
53726.0,STARLINK-4697,PAYLOAD,2024-07-01 13:54:21,15.08847233,0.0001277,53.2166,139.8228,90.6576,269.4563,0.00012272,1.666e-05,0.0,0 STARLINK-4697,1 53726U 22107AC  24183.57941658  .00001666  00000-0  12272-3 0  9994,2 53726  53.2166 139.8228 0001277  90.6576 269.4563 15.08847233101403,6917.858,95.437,540.607,538.84,0.0
53726.0,STARLINK-4697,PAYLOAD,2024-07-01 20:15:54,15.08835092,0.0001465,53.2179,138.6393,107.9172,252.198,0.00017318,2.469e-05,0.0,0 STARLINK-4697,1 53726U 22107AC  24183.84438295  .00002469  00000-0  17318-3 0  9990,2 53726  53.2179 138.6393 0001465 107.9172 252.1980 15.08835092101446,6917.895,95.438,540.774,538.747,0.0
53726.0,STARLINK-4697,PAYLOAD,2024-07-02 04:12:51,15.08829444,0.0001227,53.2158,137.1478,95.9243,264.1889,8.4445e-05,1.056e-05,0.0,0 STARLINK-4697,1 53726U 22107AC  24184.17559156  .00001056  00000-0  84445-4 0  9994,2 53726  53.2158 137.1478 0001227  95.9243 264.1889 15.08829444101032,6917.913,95.438,540.626,538.929,0.0
53726.0,STARLINK-4697,PAYLOAD,2024-07-02 13:45:09,15.08838757,0.0001316,53.2161,135.3634,94.1781,265.9361,9.5376e-05,1.23e-05,0.0,0 STARLINK-4697,1 53726U 22107AC  24184.57302670  .00001230  00000-0  95376-4 0  9994,2 53726  53.2161 135.3634 0001316  94.1781 265.9361 15.08838757101555,6917.884,95.438,540.66,538.839,0.0
53726.0,STARLINK-4697,PAYLOAD,2024-07-03 13:35:55,15.08851777,0.0001184,53.2169,130.9009,86.0763,274.0365,5.3441e-05,5.63e-06,0.0,0 STARLINK-4697,1 53726U 22107AC  24185.56661967  .00000563  00000-0  53441-4 0  9996,2 53726  53.2169 130.9009 0001184  86.0763 274.0365 15.08851777101241,6917.844,95.437,540.528,538.89,0.0
53726.0,STARLINK-4697,PAYLOAD,2024-07-04 03:54:25,15.08836042,0.0001119,53.2152,128.2258,88.009,272.103,4.772e-05,4.72e-06,0.0,0 STARLINK-4697,1 53726U 22107AC  24186.16279096  .00000472  00000-0  47720-4 0  9993,2 53726  53.2152 128.2258 0001119  88.0090 272.1030 15.08836042101338,6917.892,95.438,540.532,538.983,0.0
53726.0,STARLINK-4697,PAYLOAD,2024-07-04 13:26:43,15.08848653,0.0001207,53.2156,126.441,89.1777,270.9353,8.4668e-05,1.06e-05,0.0,0 STARLINK-4697,1 53726U 22107AC  24186.56022127  .00001060  00000-0  84668-4 0  9994,2 53726  53.2156 126.4410 0001207  89.1777 270.9353 15.08848653101856,6917.854,95.437,540.554,538.884,0.0
53726.0,STARLINK-4697,PAYLOAD,2024-07-04 19:48:16,15.08838626,0.0001173,53.2154,125.2519,90.1481,269.9646,-1.1507e-05,-4.71e-06,0.0,0 STARLINK-4697,1 53726U 22107AC  24186.82518943 -.00000471  00000-0 -11507-4 0  9998,2 53726  53.2154 125.2519 0001173  90.1481 269.9646 15.08838626101893,6917.885,95.438,540.561,538.938,0.0
53726.0,STARLINK-4697,PAYLOAD,2024-07-05 02:09:48,15.08846189,0.000176,53.2156,124.063,165.2905,194.8138,-3.1522e-05,-7.9e-06,0.0,0 STARLINK-4697,1 53726U 22107AC  24187.09014347 -.00000790  00000-0 -31522-4 0  9990,2 53726  53.2156 124.0630 0001760 165.2905 194.8138 15.08846189101472,6917.861,95.437,540.944,538.509,0.0
53726.0,STARLINK-4697,PAYLOAD,2024-07-05 13:17:30,15.08851053,0.0001426,53.2168,121.9808,91.6607,268.4549,6.6955e-05,7.78e-06,0.0,0 STARLINK-4697,1 53726U 22107AC  24187.55381961  .00000778  00000-0  66955-4 0  9992,2 53726  53.2168 121.9808 0001426  91.6607 268.4549 15.08851053102008,6917.847,95.437,540.698,538.725,0.0
53726.0,STARLINK-4697,PAYLOAD,2024-07-06 05:11:22,15.08835742,0.0001643,53.2167,119.0072,104.0899,256.0276,-3.0244e-05,-7.69e-06,0.0,0 STARLINK-4697,1 53726U 22107AC  24188.21623355 -.00000769  00000-0 -30244-4 0  9996,2 53726  53.2167 119.0072 0001643 104.0899 256.0276 15.08835742101647,6917.893,95.438,540.895,538.622,0.0
53726.0,STARLINK-4697,PAYLOAD,2024-07-06 22:40:36,15.08834939,0.0001534,53.2158,115.7362,101.8279,258.2885,3.234e-05,2.27e-06,0.0,0 STARLINK-4697,1 53726U 22107AC  24188.94487215  .00000227  00000-0  32340-4 0  9995,2 53726  53.2158 115.7362 0001534 101.8279 258.2885 15.08834939102219,6917.896,95.438,540.822,538.7,0.0
53726.0,STARLINK-4697,PAYLOAD,2024-07-07 05:02:09,15.08838407,0.0001255,53.2157,114.5464,93.5536,266.5599,1.954e-06,-2.57e-06,0.0,0 STARLINK-4697,1 53726U 22107AC  24189.20983194 -.00000257  00000-0  19540-5 0  9994,2 53726  53.2157 114.5464 0001255  93.5536 266.5599 15.08838407102253,6917.885,95.438,540.618,538.882,0.0
53726.0,STARLINK-4697,PAYLOAD,2024-07-07 19:20:38,15.08809467,0.0001362,53.2156,111.8715,99.9269,260.1877,0.00042922,6.544e-05,0.0,0 STARLINK-4697,1 53726U 22107AC  24189.80599718  .00006544  00000-0  42922-3 0  9997,2 53726  53.2156 111.8715 0001362  99.9269 260.1877 15.08809467101884,6917.974,95.439,540.781,538.896,0.0
53726.0,STARLINK-4697,PAYLOAD,2024-07-07 22:31:20,15.08971772,0.0002028,53.2158,111.276,72.3062,287.8151,-0.0018178,-0.00029207,0.0,0 STARLINK-4697,1 53726U 22107AC  24189.93843408 -.00029207  00000-0 -18178-2 0  9997,2 53726  53.2158 111.2760 0002028  72.3062 287.8151 15.08971772101909,6917.478,95.429,540.746,537.94,0.0
53726.0,STARLINK-4697,PAYLOAD,2024-07-08 11:14:27,15.08852501,0.0001372,53.218,108.898,111.9539,248.1599,0.00017659,2.525e-05,0.0,0 STARLINK-4697,1 53726U 22107AC  24190.46837949  .00002525  00000-0  17659-3 0  9996,2 53726  53.2180 108.8980 0001372 111.9539 248.1599 15.08852501101982,6917.842,95.437,540.656,538.758,0.0
53726.0,STARLINK-4697,PAYLOAD,2024-07-08 14:25:17,15.08810884,0.0001091,53.217,108.3018,81.7737,278.3378,-0.00015479,-2.748e-05,0.0,0 STARLINK-4697,1 53726U 22107AC  24190.60089263 -.00002748  00000-0 -15479-3 0  9997,2 53726  53.2170 108.3018 0001091  81.7737 278.3378 15.08810884102462,6917.969,95.439,540.589,539.08,0.0
53726.0,STARLINK-4697,PAYLOAD,2024-07-08 19:11:25,15.0883253,0.0001421,53.217,107.4135,95.5723,264.5431,-2.6233e-06,-3.3e-06,0.0,0 STARLINK-4697,1 53726U 22107AC  24190.79959781 -.00000330  00000-0 -26233-5 0  9995,2 53726  53.2170 107.4135 0001421  95.5723 264.5431 15.08832530102039,6917.903,95.438,540.751,538.785,0.0
53726.0,STARLINK-4697,PAYLOAD,2024-07-08 22:22:11,15.08835186,0.0001198,53.2165,106.8152,85.9177,274.1952,1.8595e-05,8e-08,0.0,0 STARLINK-4697,1 53726U 22107AC  24190.93207464  .00000008  00000-0  18595-4 0  9996,2 53726  53.2165 106.8152 0001198  85.9177 274.1952 15.08835186102510,6917.895,95.438,540.589,538.931,0.0
53726.0,STARLINK-4697,PAYLOAD,2024-07-09 04:43:43,15.08842601,0.0001229,53.2167,105.6261,81.1906,278.9225,8.1555e-05,1.01e-05,0.0,0 STARLINK-4697,1 53726U 22107AC  24191.19702836  .00001010  00000-0  81555-4 0  9998,2 53726  53.2167 105.6261 0001229  81.1906 278.9225 15.08842601102091,6917.872,95.437,540.588,538.887,0.0
53726.0,STARLINK-4697,PAYLOAD,2024-07-09 11:05:14,15.0885275,0.0001259,53.2172,104.4376,84.5748,275.5387,0.00014769,2.064e-05,0.0,0 STARLINK-4697,1 53726U 22107AC  24191.46197909  .00002064  00000-0  14769-3 0  9999,2 53726  53.2172 104.4376 0001259  84.5748 275.5387 15.08852750102138,6917.841,95.437,540.577,538.835,0.0
53726.0,STARLINK-4697,PAYLOAD,2024-07-09 17:26:48,15.0884881,0.0002697,53.2168,103.2492,80.8849,279.2448,0.00013022,1.785e-05,0.0,0 STARLINK-4697,1 53726U 22107AC  24191.72694638  .00001785  00000-0  13022-3 0  9999,2 53726  53.2168 103.2492 0002697  80.8849 279.2448 15.08848810102172,6917.853,95.437,541.584,537.853,0.0
53726.0,STARLINK-4697,PAYLOAD,2024-07-09 22:12:59,15.08824502,0.0001383,53.217,102.3563,86.7564,273.3586,-7.9129e-05,-1.546e-05,0.0,0 STARLINK-4697,1 53726U 22107AC  24191.92568583 -.00001546  00000-0 -79129-4 0  9998,2 53726  53.2170 102.3563 0001383  86.7564 273.3586 15.08824502102668,6917.928,95.439,540.75,538.836,0.0
53726.0,STARLINK-4697,PAYLOAD,2024-07-10 02:59:08,15.08830046,0.0001353,53.2168,101.4648,89.8694,270.2453,-2.5173e-05,-6.88e-06,0.0,0 STARLINK-4697,1 53726U 22107AC  24192.12440211 -.00000688  00000-0 -25173-4 0  9994,2 53726  53.2168 101.4648 0001353  89.8694 270.2453 15.08830046102236,6917.911,95.438,540.712,538.84,0.0
53726.0,STARLINK-4697,PAYLOAD,2024-07-10 10:56:03,15.08845657,0.0001351,53.2169,99.9781,85.6155,274.4992,-1.8737e-05,-5.86e-06,0.0,0 STARLINK-4697,1 53726U 22107AC  24192.45559263 -.00000586  00000-0 -18737-4 0  9993,2 53726  53.2169  99.9781 0001351  85.6155 274.4992 15.08845657102283,6917.863,95.437,540.663,538.793,0.0
